MOLNIYA 2-9             
1 07276U 74026A   22355.67427159  .00000224  00000+0  00000+0 0  9995
2 07276  64.2820 201.4115 6410992 278.8604  18.3769  2.45096307253972
MOLNIYA 2-10            
1 07376U 74056A   22350.39284194  .00001182  00000+0  00000+0 0  9997
2 07376  64.3847  75.8091 6767823 285.2426  13.7548  2.01156260354019
MOLNIYA 1-S             
1 07392U 74060A   22355.47578840  .00000170  00000+0  00000+0 0  9994
2 07392   4.6448 280.0834 0010310 217.1726 168.7518  1.00240854121403
MOLNIYA 1-29            
1 07780U 75036A   22355.60392781  .00000163  00000+0 -42843-1 0  9998
2 07780  63.4154 194.8209 6820769 287.9489  12.7065  2.00590781349408
MOLNIYA 2-14            
1 08195U 75081A   22353.74941919  .00001117  00000+0  00000+0 0  9991
2 08195  63.3874 168.3801 6743409 292.2128  11.9828  2.02058824346634
MOLNIYA 1-32            
1 08601U 76006A   22356.01055133  .00000831  00000+0  00000+0 0  9990
2 08601  63.5343 272.0944 7170139 283.8924  11.6944  2.00073484342757
MOLNIYA 1-36            
1 09880U 77021A   22355.13560916 -.00001219  00000+0  00000+0 0  9992
2 09880  63.4823 244.4935 7087250 289.5350  10.8698  2.00678238233113
MOLNIYA 3-8             
1 10455U 77105A   22354.90648410 -.00001573  00000+0 -11195-2 0  9999
2 10455  63.4336 329.6527 7337190 282.5427  10.7879  2.00579724330886
MOLNIYA 1-40            
1 10925U 78055A   22356.08874210 -.00000845  00000+0  00000+0 0  9996
2 10925  63.5416  21.3294 7271946 280.7335  11.6065  2.00685971326478
MOLNIYA 3-10            
1 11057U 78095A   22355.23914342 -.00000037  00000+0  26093-3 0  9991
2 11057  63.2487 330.7065 5778571 311.7560  11.4640  4.09869942391384
MOLNIYA 3-13            
1 11896U 80063A   22355.36481920 -.00000088  00000+0  00000+0 0  9997
2 11896  62.7588 113.1823 7150220 276.5896  13.6812  2.00632795310843
MOLNIYA 1-49            
1 12156U 81009A   22354.86923851 -.00000875  00000+0 -46135-3 0  9994
2 12156  61.6940 136.5701 7327632 265.2415  15.9616  2.05709411225322
MOLNIYA 1-52            
1 13012U 81123A   22354.35000347  .00001683  00000+0  16874-1 0  9994
2 13012  61.6372 251.9851 7204163 257.4195  20.4019  2.00560779300309
MOLNIYA 1-53            
1 13070U 82015A   22354.51950119 -.00000869  00000+0 -84652-2 0  9995
2 13070  62.5548 191.5935 6981038 283.0924  13.0090  2.00447299298996
MOLNIYA 3-20            
1 13875U 83015A   22354.49606090  .00000770  00000+0  16293-2 0  9997
2 13875  62.6251 323.2051 7386779 259.9003  17.4844  2.00839639227446
MOLNIYA 1-56            
1 13890U 83019A   22355.25308002  .00000100  00000+0  27447-3 0  9996
2 13890  62.9140 347.9039 7448519 265.7256  14.7138  2.00033311290335
MOLNIYA 1-63            
1 15429U 84124A   22356.01015741 -.00000800  00000+0  00000+0 0  9994
2 15429  63.7405 149.5806 6705956 258.2895 103.0848  2.00781676278567
MOLNIYA 3-24            
1 15738U 85040A   22354.75968009 -.00000246  00000+0 -19316-2 0  9996
2 15738  63.5921  47.6343 6858836 247.2324  30.1064  2.55629681308635
MOLNIYA 3-27            
1 16393U 85117A   22354.66981079 -.00000192  00000+0  00000+0 0  9997
2 16393  64.3003  56.7980 7047271 247.2733  27.7471  2.12398019278135
MOLNIYA 1-69            
1 17078U 86089A   22355.23822649  .00000955  00000+0  00000+0 0  9994
2 17078  64.0071 168.6936 6696805 256.5930  26.0182  2.00735418264597
MOLNIYA 3-31            
1 17328U 87008A   22355.35657465 -.00000002  00000+0  00000+0 0  9993
2 17328  63.6746 105.9036 7129872 253.3001  23.1703  2.00682950259643
MOLNIYA 1-71            
1 18946U 88017A   22354.83314222 -.00000028  00000+0  00000+0 0  9992
2 18946  63.3523  98.7105 7240888 256.3251  20.4460  2.00574775254793
MOLNIYA 1-75            
1 19807U 89014A   22355.07025620 -.00000121  00000+0  00000+0 0  9999
2 19807  63.9754 264.3596 6792799 266.0662  20.4245  2.00555943247804
MOLNIYA 1-80            
1 21118U 91012A   22353.29036528 -.00000282  00000+0  00000+0 0  9997
2 21118  65.1924 312.9631 6744009 275.2342  17.0850  2.05238128234777
MOLNIYA 3-40            
1 21196U 91022A   22355.02933713  .00000844  00000+0  00000+0 0  9992
2 21196  65.0787 306.4708 6770597 272.0743  18.0766  2.03011978233476
MOLNIYA 1-81            
1 21426U 91043A   22354.94933816 -.00000160  00000+0  00000+0 0  9997
2 21426  64.0127 320.4568 7069805 265.9792  17.9031  2.00621164230907
MOLNIYA 3-41            
1 21706U 91065A   22354.84424002 -.00000496  00000+0  00000+0 0  9995
2 21706  64.0911 145.3999 6918069 254.1600  25.0240  2.04350188230678
MOLNIYA 3-42            
1 22178U 92067A   22352.06948599  .00000254  00000+0  00000+0 0  9997
2 22178  64.6738 196.7180 6418977 264.0315  24.8199  2.20434608 84106
MOLNIYA 1-86            
1 22671U 93035A   22356.18779148  .00000043  00000+0  10977-3 0  9994
2 22671  63.0834 127.6432 4860517  10.1351 356.8827  5.62763957362810
MOLNIYA 1-87            
1 22949U 93079A   22353.40404103  .00001199  00000+0  00000+0 0  9993
2 22949  64.1752  70.9335 6913732 283.1855  13.3959  2.02862680213036
MOLNIYA 1-88            
1 23420U 94081A   22355.34269550  .00000132  00000+0  00000+0 0  9998
2 23420  64.2818 154.6053 5795695 279.5537  22.8353  3.34495328119959
MOLNIYA 3-47            
1 23642U 95042A   22354.94912470  .00000538  00000+0  00000+0 0  9993
2 23642  64.3108  52.2842 6956353 283.4412  13.0105  2.01923152200877
MOLNIYA 1-90            
1 24960U 97054A   22356.36477684  .00000113  00000+0  25848-2 0  9992
2 24960  63.6919 120.2417 6097624 297.3149  14.1760  3.18687563214073
MOLNIYA 1-91            
1 25485U 98054A   22355.36841095  .00000172  00000+0  22925-2 0  9994
2 25485  63.1204 121.1715 6771567 291.8570  29.1962  2.36442290182801
MOLNIYA 3-50            
1 25847U 99036A   22355.90308144 -.00000355  00000+0 -22838-2 0  9998
2 25847  63.2902 305.9096 7327585 282.5209  10.9466  2.00655010171876
